NORAD_CAT_ID,OBJECT_NAME,OBJECT_TYPE,EPOCH,MEAN_MOTION,ECCENTRICITY,INCLINATION,RA_OF_ASC_NODE,ARG_OF_PERICENTER,MEAN_ANOMALY,BSTAR,MEAN_MOTION_DOT,MEAN_MOTION_DDOT,TLE_LINE0,TLE_LINE1,TLE_LINE2,SEMIMAJOR_AXIS,PERIOD,APOGEE,PERIGEE,DECAYED
53719.0,STARLINK-4644,PAYLOAD,2024-02-21 12:42:59,15.08853313,0.000153,53.2171,337.8801,75.4674,284.6487,0.00016875,2.4e-05,0.0,0 STARLINK-4644,1 53719U 22107V   24052.52985095  .00002400  00000-0  16875-3 0  9999,2 53719  53.2171 337.8801 0001530  75.4674 284.6487 15.08853313 82048,6917.84,95.437,540.763,538.646,0.0
53719.0,STARLINK-4644,PAYLOAD,2024-02-21 22:15:18,15.08839468,0.0001852,53.2167,336.0909,112.3644,247.7545,0.00018318,2.628e-05,0.0,0 STARLINK-4644,1 53719U 22107V   24052.92729817  .00002628  00000-0  18318-3 0  9997,2 53719  53.2167 336.0909 0001852 112.3644 247.7545 15.08839468 82105,6917.882,95.438,541.028,538.466,0.0
53719.0,STARLINK-4644,PAYLOAD,2024-02-22 01:26:04,15.08838756,0.0001758,53.2205,335.4976,109.279,250.8393,8.395e-05,1.048e-05,0.0,0 STARLINK-4644,1 53719U 22107V   24053.05977895  .00001048  00000-0  83950-4 0  9993,2 53719  53.2205 335.4976 0001758 109.2790 250.8393 15.08838756 81651,6917.884,95.438,540.965,538.533,0.0
53719.0,STARLINK-4644,PAYLOAD,2024-02-22 22:06:05,15.08843072,0.0001787,53.2205,331.632,109.2547,250.8639,-2.3956e-05,-6.69e-06,0.0,0 STARLINK-4644,1 53719U 22107V   24053.92089842 -.00000669  00000-0 -23956-4 0  9995,2 53719  53.2205 331.6320 0001787 109.2547 250.8639 15.08843072 82251,6917.871,95.437,540.972,538.5,0.0
53719.0,STARLINK-4644,PAYLOAD,2024-02-23 10:49:10,15.08849296,0.0001465,53.2184,329.2501,91.3126,268.8034,-5.0962e-05,-1.099e-05,0.0,0 STARLINK-4644,1 53719U 22107V   24054.45081303 -.00001099  00000-0 -50962-4 0  9993,2 53719  53.2184 329.2501 0001465  91.3126 268.8034 15.08849296 81866,6917.852,95.437,540.73,538.704,0.0
53719.0,STARLINK-4644,PAYLOAD,2024-02-23 18:46:07,15.08829031,0.0001791,53.2198,327.7678,101.9703,258.149,3.4503e-05,2.61e-06,0.0,0 STARLINK-4644,1 53719U 22107V   24054.78202737  .00000261  00000-0  34503-4 0  9996,2 53719  53.2198 327.7678 0001791 101.9703 258.1490 15.08829031 81919,6917.914,95.438,541.018,538.54,0.0
53719.0,STARLINK-4644,PAYLOAD,2024-02-23 21:56:53,15.08829322,0.0001756,53.2195,327.1733,102.8623,257.2566,3.4038e-05,2.54e-06,0.0,0 STARLINK-4644,1 53719U 22107V   24054.91450782  .00000254  00000-0  34038-4 0  9991,2 53719  53.2195 327.1733 0001756 102.8623 257.2566 15.08829322 82406,6917.913,95.438,540.993,538.563,0.0
53719.0,STARLINK-4644,PAYLOAD,2024-02-24 10:39:58,15.0883607,0.0001606,53.2181,324.7934,103.1327,256.9844,7.8886e-05,9.68e-06,0.0,0 STARLINK-4644,1 53719U 22107V   24055.44442486  .00000968  00000-0  78886-4 0  9993,2 53719  53.2181 324.7934 0001606 103.1327 256.9844 15.08836070 82016,6917.892,95.438,540.868,538.646,0.0
53719.0,STARLINK-4644,PAYLOAD,2024-02-25 02:33:47,15.08860113,0.0001891,53.217,321.8166,75.5831,284.5371,0.00020897,3.041e-05,0.0,0 STARLINK-4644,1 53719U 22107V   24056.10680445  .00003041  00000-0  20897-3 0  9999,2 53719  53.2170 321.8166 0001891  75.5831 284.5371 15.08860113 82115,6917.819,95.436,540.992,538.376,0.0
53719.0,STARLINK-4644,PAYLOAD,2024-02-25 10:30:43,15.08856971,0.0001468,53.2183,320.3299,64.7562,295.3582,0.00016626,2.36e-05,0.0,0 STARLINK-4644,1 53719U 22107V   24056.43800271  .00002360  00000-0  16626-3 0  9994,2 53719  53.2183 320.3299 0001468  64.7562 295.3582 15.08856971 82639,6917.829,95.436,540.709,538.678,0.0
53719.0,STARLINK-4644,PAYLOAD,2024-02-25 21:38:27,15.08832849,0.0001584,53.2195,318.2525,86.2766,273.8407,8.4042e-05,1.05e-05,0.0,0 STARLINK-4644,1 53719U 22107V   24056.90170146  .00001050  00000-0  84042-4 0  9990,2 53719  53.2195 318.2525 0001584  86.2766 273.8407 15.08832849 82707,6917.902,95.438,540.863,538.671,0.0
53719.0,STARLINK-4644,PAYLOAD,2024-02-26 02:24:35,15.08841998,0.0001664,53.22,317.3594,83.1669,276.9513,0.00011957,1.616e-05,0.0,0 STARLINK-4644,1 53719U 22107V   24057.10041657  .00001616  00000-0  11957-3 0  9999,2 53719  53.2200 317.3594 0001664  83.1669 276.9513 15.08841998 82265,6917.874,95.437,540.89,538.588,0.0
53719.0,STARLINK-4644,PAYLOAD,2024-02-26 21:29:13,15.08839924,0.0001319,53.2187,313.7877,111.3938,248.7195,-0.00013579,-2.448e-05,0.0,0 STARLINK-4644,1 53719U 22107V   24057.89530065 -.00002448  00000-0 -13579-3 0  9999,2 53719  53.2187 313.7877 0001319 111.3938 248.7195 15.08839924 82857,6917.881,95.438,540.658,538.833,0.0
53719.0,STARLINK-4644,PAYLOAD,2024-02-27 00:40:00,15.0883655,0.0002415,53.2186,313.1955,69.9054,290.2197,-5.3872e-05,-1.146e-05,0.0,0 STARLINK-4644,1 53719U 22107V   24058.02778658 -.00001146  00000-0 -53872-4 0  9992,2 53719  53.2186 313.1955 0002415  69.9054 290.2197 15.08836550 82409,6917.891,95.438,541.427,538.085,0.0
53719.0,STARLINK-4644,PAYLOAD,2024-02-27 10:12:19,15.08838317,0.0001946,53.2177,311.4123,79.2997,280.8214,-3.8564e-05,-9.02e-06,0.0,0 STARLINK-4644,1 53719U 22107V   24058.42522394 -.00000902  00000-0 -38564-4 0  9990,2 53719  53.2177 311.4123 0001946  79.2997 280.8214 15.08838317 82931,6917.886,95.438,541.097,538.404,0.0
53719.0,STARLINK-4644,PAYLOAD,2024-02-27 22:55:24,15.08829472,0.000135,53.217,309.032,84.1598,275.9548,9.2518e-05,1.184e-05,0.0,0 STARLINK-4644,1 53719U 22107V   24058.95514779  .00001184  00000-0  92518-4 0  9996,2 53719  53.2170 309.0320 0001350  84.1598 275.9548 15.08829472 83014,6917.913,95.438,540.711,538.844,0.0
53719.0,STARLINK-4644,PAYLOAD,2024-02-28 10:03:08,15.08815723,0.0001625,53.2188,306.9509,96.0379,264.0798,-0.00011439,-2.107e-05,0.0,0 STARLINK-4644,1 53719U 22107V   24059.41884664 -.00002107  00000-0 -11439-3 0  9991,2 53719  53.2188 306.9509 0001625  96.0379 264.0798 15.08815723 82617,6917.955,95.439,540.944,538.695,0.0
53719.0,STARLINK-4644,PAYLOAD,2024-02-28 22:46:13,15.08826297,0.0001302,53.2162,304.5753,88.0899,272.0242,4.2142e-05,3.83e-06,0.0,0 STARLINK-4644,1 53719U 22107V   24059.94876503  .00000383  00000-0  42142-4 0  9990,2 53719  53.2162 304.5753 0001302  88.0899 272.0242 15.08826297 83166,6917.922,95.438,540.688,538.887,0.0
53719.0,STARLINK-4644,PAYLOAD,2024-02-29 21:01:36,15.08848509,0.0001326,53.2154,300.4114,85.7531,274.3612,0.00042642,6.507e-05,0.0,0 STARLINK-4644,1 53719U 22107V   24060.87611872  .00006507  00000-0  42642-3 0  9998,2 53719  53.2154 300.4114 0001326  85.7531 274.3612 15.08848509 82835,6917.854,95.437,540.637,538.802,0.0
53719.0,STARLINK-4644,PAYLOAD,2024-02-29 22:36:59,15.08852382,0.0001352,53.216,300.1127,100.93,259.1844,0.00047879,7.343e-05,0.0,0 STARLINK-4644,1 53719U 22107V   24060.94235704  .00007343  00000-0  47879-3 0  9998,2 53719  53.2160 300.1127 0001352 100.9300 259.1844 15.08852382 83312,6917.843,95.437,540.643,538.772,0.0
53719.0,STARLINK-4644,PAYLOAD,2024-03-01 01:47:45,15.08859446,0.0001374,53.2153,299.5172,100.4327,259.682,0.00063437,9.828e-05,0.0,0 STARLINK-4644,1 53719U 22107V   24061.07483637  .00009828  00000-0  63437-3 0  9991,2 53719  53.2153 299.5172 0001374 100.4327 259.6820 15.08859446 83332,6917.821,95.436,540.636,538.735,0.0
53719.0,STARLINK-4644,PAYLOAD,2024-03-01 20:52:22,15.08862786,0.0001446,53.216,295.9496,103.2619,256.8534,0.00036371,5.509e-05,0.0,0 STARLINK-4644,1 53719U 22107V   24061.86970909  .00005509  00000-0  36371-3 0  9990,2 53719  53.2160 295.9496 0001446 103.2619 256.8534 15.08862786 83459,6917.811,95.436,540.676,538.675,0.0
53719.0,STARLINK-4644,PAYLOAD,2024-03-01 22:27:45,15.088634,0.0001392,53.2155,295.65,102.3044,257.8104,0.00034541,5.217e-05,0.0,0 STARLINK-4644,1 53719U 22107V   24061.93594761  .00005217  00000-0  34541-3 0  9999,2 53719  53.2155 295.6500 0001392 102.3044 257.8104 15.08863400 82994,6917.809,95.436,540.637,538.711,0.0
53719.0,STARLINK-4644,PAYLOAD,2024-03-02 19:07:46,15.0885159,0.0001825,53.2155,291.7858,117.8643,242.2534,2.9551e-05,1.82e-06,0.0,0 STARLINK-4644,1 53719U 22107V   24062.79706533  .00000182  00000-0  29551-4 0  9998,2 53719  53.2155 291.7858 0001825 117.8643 242.2534 15.08851590 83122,6917.845,95.437,540.972,538.447,0.0
53719.0,STARLINK-4644,PAYLOAD,2024-03-02 22:18:32,15.08842282,0.0001388,53.2158,291.1887,101.4465,258.6683,-0.00015178,-2.703e-05,0.0,0 STARLINK-4644,1 53719U 22107V   24062.92954745 -.00002703  00000-0 -15178-3 0  9995,2 53719  53.2158 291.1887 0001388 101.4465 258.6683 15.08842282 83614,6917.873,95.437,540.699,538.778,0.0
53719.0,STARLINK-4644,PAYLOAD,2024-03-03 07:50:51,15.08843219,0.0001301,53.2158,289.4033,84.468,275.646,-6.8251e-05,-1.374e-05,0.0,0 STARLINK-4644,1 53719U 22107V   24063.32698918 -.00001374  00000-0 -68251-4 0  9991,2 53719  53.2158 289.4033 0001301  84.4680 275.6460 15.08843219 83209,6917.871,95.437,540.636,538.836,0.0
53719.0,STARLINK-4644,PAYLOAD,2024-03-03 14:12:24,15.08838802,0.0001431,53.2165,288.2177,91.7195,268.3961,-6e-05,-1.243e-05,0.0,0 STARLINK-4644,1 53719U 22107V   24063.59195188 -.00001243  00000-0 -60000-4 0  9990,2 53719  53.2165 288.2177 0001431  91.7195 268.3961 15.08838802 83712,6917.884,95.438,540.739,538.759,0.0
53719.0,STARLINK-4644,PAYLOAD,2024-03-03 20:33:56,15.08851257,0.0001617,53.2166,287.0316,105.9953,254.1217,7.1924e-05,8.57e-06,0.0,0 STARLINK-4644,1 53719U 22107V   24063.85690260  .00000857  00000-0  71924-4 0  9995,2 53719  53.2166 287.0316 0001617 105.9953 254.1217 15.08851257 83751,6917.846,95.437,540.83,538.592,0.0
53719.0,STARLINK-4644,PAYLOAD,2024-03-03 23:44:41,15.08870635,0.0001413,53.2165,286.429,80.5984,279.5168,0.00039645,6.032e-05,0.0,0 STARLINK-4644,1 53719U 22107V   24063.98937251  .00006032  00000-0  39645-3 0  9997,2 53719  53.2165 286.4290 0001413  80.5984 279.5168 15.08870635 83308,6917.787,95.436,540.629,538.674,0.0
53719.0,STARLINK-4644,PAYLOAD,2024-03-04 07:41:37,15.08850907,0.0001296,53.2162,284.944,120.8944,239.2176,0.0002024,2.936e-05,0.0,0 STARLINK-4644,1 53719U 22107V   24064.32057860  .00002936  00000-0  20240-3 0  9995,2 53719  53.2162 284.9440 0001296 120.8944 239.2176 15.08850907 83355,6917.847,95.437,540.609,538.815,0.0
